STARLINK-2741           
1 48684U 21044AY  26068.44792036  .00000167  00000+0  17769-4 0  9995
2 48684  53.1596  79.0490 0001247  97.7321 262.3821 15.30197658264295
YAOGAN-43 01G           
1 60464U 24148G   26068.44348481  .00010133  00000+0  35873-3 0  9993
2 60464  35.0006  62.0013 0007382 306.3543  53.6492 15.28332833 87004
